[{"OBJECT_NAME":"RROCI-2","OBJECT_ID":"2024-043J","EPOCH":"2026-03-09T21:40:56.693280","MEAN_MOTION":14.99383357,"ECCENTRICITY":0.00054118,"INCLINATION":97.8279,"RA_OF_ASC_NODE":200.9973,"ARG_OF_PERICENTER":337.3784,"MEAN_ANOMALY":22.7199,"EPHEMERIS_TYPE":0,"CLASSIFICATION_TYPE":"U","NORAD_CAT_ID":59106,"ELEMENT_SET_NO":999,"REV_AT_EPOCH":10988,"BSTAR":0.00035067832,"MEAN_MOTION_DOT":4.232e-5,"MEAN_MOTION_DDOT":0},{"OBJECT_NAME":"STARLINK-34408","OBJECT_ID":"2025-126V","EPOCH":"2026-03-09T22:34:11.232192","MEAN_MOTION":14.98362079,"ECCENTRICITY":0.00031482,"INCLINATION":70.0023,"RA_OF_ASC_NODE":33.6546,"ARG_OF_PERICENTER":270.6154,"MEAN_ANOMALY":89.4644,"EPHEMERIS_TYPE":0,"CLASSIFICATION_TYPE":"U","NORAD_CAT_ID":64363,"ELEMENT_SET_NO":999,"REV_AT_EPOCH":4072,"BSTAR":0.00097587334,"MEAN_MOTION_DOT":0.0001158,"MEAN_MOTION_DDOT":0}]
